*******************************************************************************
JPL/HORIZONS                 65 Cybele (A861 EB)           2023-Sep-04 11:04:11
Rec #:      65 (+COV) Soln.date: 2023-Aug-24_10:20:07   # obs: 4605 (1861-2023)
 
IAU76/J2000 helio. ecliptic osc. elements (au, days, deg., period=Julian yrs):
 
  EPOCH=  2457523.5 ! 2016-May-15.00 (TDB)         Residual RMS= .3084
   EC= .1110260375358763   QR= 3.048342541999731   TP= 2456917.5528855557
   OM= 155.6349731027474   W=  102.3565628214041   IN= 3.562826599489744
   A= 3.429057172327196    MA= 94.05387787901849   ADIST= 3.809771802654661
   PER= 6.34995            N= .155217965           ANGMOM= .031657415
   DAN= 3.46921            DDN= 3.30819            L= 258.0147271
   B= 3.4801901            MOID= 2.03607988        TP= 2014-Sep-17.0528855557
 
Asteroid physical parameters (km, seconds, rotational period in hours):
   GM= n.a.                RAD= 118.63             ROTPER= 6.0814
   H= 6.89                 G= .010                 B-V= .690
                           ALBEDO= .0706           STYP= Xc

ASTEROID comments: 
1: soln ref.= JPL#105, OCC=0
2: source=ORB
*******************************************************************************


*******************************************************************************
Ephemeris / API_USER Mon Sep  4 11:04:11 2023 Pasadena, USA      / Horizons
*******************************************************************************
Target body name: 65 Cybele (A861 EB)             {source: JPL#105}
Center body name: Solar System Barycenter (0)     {source: DE441}
Center-site name: BODY CENTER
*******************************************************************************
Start time      : A.D. 2023-Aug-12 00:00:00.0000 TDB
Stop  time      : A.D. 2023-Aug-13 00:00:00.0000 TDB
Step-size       : 2880 minutes
*******************************************************************************
Center geodetic : 0.0, 0.0, 0.0                   {E-lon(deg),Lat(deg),Alt(km)}
Center cylindric: 0.0, 0.0, 0.0                   {E-lon(deg),Dxy(km),Dz(km)}
Center radii    : (undefined)
Small perturbers: Yes                             {source: SB441-N16}
Output units    : KM-S
Calendar mode   : Mixed Julian/Gregorian
Output type     : GEOMETRIC cartesian states
Output format   : 2 (position and velocity)
Reference frame : Ecliptic of J2000.0
*******************************************************************************
Initial IAU76/J2000 heliocentric ecliptic osculating elements (au, days, deg.):
  EPOCH=  2457523.5 ! 2016-May-15.00 (TDB)         Residual RMS= .3084         
   EC= .1110260375358763   QR= 3.048342541999731   TP= 2456917.5528855557      
   OM= 155.6349731027474   W=  102.3565628214041   IN= 3.562826599489744       
  Equivalent ICRF heliocentric cartesian coordinates (au, au/d):
   X= 3.485017000709698E+00  Y= 2.915445009261354E-01  Z= 1.199952830347484E-02
  VX= 2.727400480210162E-04 VY= 8.545534819587527E-03 VZ= 3.135519162972332E-03
Asteroid physical parameters (km, seconds, rotational period in hours):        
   GM= n.a.                RAD= 118.63             ROTPER= 6.0814              
   H= 6.89                 G= .010                 B-V= .690                   
                           ALBEDO= .0706           STYP= Xc                    
*******************************************************************************
JDTDB
   X     Y     Z
   VX    VY    VZ
*******************************************************************************
$$SOE
2460168.500000000 = A.D. 2023-Aug-12 00:00:00.0000 TDB 
 X = 3.661782687997406E+08 Y = 4.276010418394992E+08 Z =-3.368373147432372E+07
 VX=-1.036500650673770E+01 VY= 1.014800257140913E+01 VZ=-3.061428724780422E-01
$$EOE
*******************************************************************************
 
TIME

  Barycentric Dynamical Time ("TDB" or T_eph) output was requested. This
continuous coordinate time is equivalent to the relativistic proper time
of a clock at rest in a reference frame co-moving with the solar system
barycenter but outside the system's gravity well. It is the independent
variable in the solar system relativistic equations of motion.

  TDB runs at a uniform rate of one SI second per second and is independent
of irregularities in Earth's rotation.
 
CALENDAR SYSTEM

  Mixed calendar mode was active such that calendar dates after AD 1582-Oct-15
(if any) are in the modern Gregorian system. Dates prior to 1582-Oct-5 (if any)
are in the Julian calendar system, which is automatically extended for dates
prior to its adoption on 45-Jan-1 BC.  The Julian calendar is useful for
matching historical dates. The Gregorian calendar more accurately corresponds
to the Earth's orbital motion and seasons. A "Gregorian-only" calendar mode is
available if such physical events are the primary interest.

REFERENCE FRAME AND COORDINATES

  Ecliptic at the standard reference epoch

    Reference epoch: J2000.0
    X-Y plane: adopted Earth orbital plane at the reference epoch
               Note: IAU76 obliquity of 84381.448 arcseconds wrt ICRF X-Y plane
    X-axis   : ICRF
    Z-axis   : perpendicular to the X-Y plane in the directional (+ or -) sense
               of Earth's north pole at the reference epoch.

  Symbol meaning:

    JDTDB    Julian Day Number, Barycentric Dynamical Time
      X      X-component of position vector (km)
      Y      Y-component of position vector (km)
      Z      Z-component of position vector (km)
      VX     X-component of velocity vector (km/sec)                           
      VY     Y-component of velocity vector (km/sec)                           
      VZ     Z-component of velocity vector (km/sec)                           

ABERRATIONS AND CORRECTIONS

 Geometric state vectors have NO corrections or aberrations applied.

Computations by ...

    Solar System Dynamics Group, Horizons On-Line Ephemeris System
    4800 Oak Grove Drive, Jet Propulsion Laboratory
    Pasadena, CA  91109   USA

    General site: https://ssd.jpl.nasa.gov/
    Mailing list: https://ssd.jpl.nasa.gov/email_list.html
    System news : https://ssd.jpl.nasa.gov/horizons/news.html
    User Guide  : https://ssd.jpl.nasa.gov/horizons/manual.html
    Connect     : browser        https://ssd.jpl.nasa.gov/horizons/app.html#/x
                  API            https://ssd-api.jpl.nasa.gov/doc/horizons.html
                  command-line   telnet ssd.jpl.nasa.gov 6775
                  e-mail/batch   https://ssd.jpl.nasa.gov/ftp/ssd/hrzn_batch.txt
                  scripts        https://ssd.jpl.nasa.gov/ftp/ssd/SCRIPTS
    Author      : Jon.D.Giorgini@jpl.nasa.gov
*******************************************************************************
